LEMUR-1                 
1 40044U 14033AL  26177.92775197  .00001903  00000+0  22318-3 0  9994
2 40044  97.7885 327.5167 0049225  47.4650 313.0706 14.85280590646915
LEMUR-2-GREENBERG       
1 42837U 17042N   26177.75725863  .00016140  00000+0  53034-3 0  9993
2 42837  97.3818 358.3396 0007632 337.7149  22.3759 15.31609409489851
LEMUR-2-ANDIS           
1 42838U 17042P   26177.95994603  .00022549  00000+0  66002-3 0  9995
2 42838  97.3676 358.7595 0007409 334.2361  25.8512 15.35226272489952
LEMUR-2-MONSON          
1 42839U 17042Q   26177.45947918  .00017793  00000+0  64775-3 0  9998
2 42839  97.4079 358.0012 0005479 329.4896  30.6024 15.28263966489586
LEMUR-2-FURIAUS         
1 42840U 17042R   26177.95385982  .00018809  00000+0  63772-3 0  9997
2 42840  97.3765 356.4686 0007501  37.6635 322.5130 15.30563053489703
LEMUR-2-PETERG          
1 42841U 17042S   26177.95017707  .00025760  00000+0  77663-3 0  9993
2 42841  97.3987   2.9983 0002703 309.9981  50.1025 15.34287770489936
LEMUR-2-DEMBITZ         
1 42842U 17042T   26177.77739986  .00015993  00000+0  54291-3 0  9993
2 42842  97.3821 359.3244 0005888 354.2318   5.8854 15.30569780489811
LEMUR-2-ZACHARY         
1 42845U 17042W   26177.80526310  .00046440  00000+0  79578-3 0  9991
2 42845  97.3591   9.6516 0002320 346.7200  13.3991 15.51079043490694
LEMUR-2-AMANDA-SVANTE   
1 48269U 21034B   26177.74737755  .00032217  00000+0  95274-3 0  9991
2 48269  97.5764 256.2875 0003276 182.5351 177.5875 15.34851922282526
LEMUR-2-SPECIAL-K       
1 48273U 21034F   26177.79958267  .00187200  00000+0  17017-2 0  9995
2 48273  97.5656 265.3715 0005032 224.2159 135.8700 15.67365383283192
LEMUR-2-EMBRIONOVIS     
1 56970U 23084AQ  26177.96311584  .00014353  00000+0  38835-3 0  9999
2 56970  97.6292 322.5393 0007438 279.6247  80.4156 15.37786701169184
LEMUR-2-DEVERILL-M-T    
1 57391U 23100F   26177.85131013  .00027576  00000+0  68712-3 0  9999
2 57391  99.4471 219.4028 0005443  16.3882 343.7532 15.40213611162731
LEMUR-2-BASS            
1 58259U 23174D   26177.80676050  .00018586  00000+0  41709-3 0  9992
2 58259  97.3853 262.6546 0008075 132.9957 227.1969 15.43404863146840
LEMUR-2-JK0903EM1407    
1 58336U 23174CJ  26177.81567535  .00026703  00000+0  44191-3 0  9994
2 58336  97.3932 268.5590 0005116  91.7833 268.4005 15.52160304147227
LEMUR-2-MJR092620       
1 58340U 23174CN  26177.74412113  .00018380  00000+0  38821-3 0  9997
2 58340  97.3983 267.9506 0006859  90.0451 270.1584 15.45214761147121
LEMUR-2-NIMBUS2000      
1 58899U 24022A   26177.82436807  .00022787  00000+0  56432-3 0  9998
2 58899  97.4103  27.9483 0010234  86.9161 273.3256 15.40373739133758
LEMUR-2-VALHALLA        
1 58900U 24022B   26177.82286003  .00017093  00000+0  42992-3 0  9992
2 58900  97.4101  27.9320 0010765  82.8852 277.3618 15.39954523133750
LEMUR-2-CAEL            
1 58903U 24022E   26177.88940920  .00018053  00000+0  43481-3 0  9997
2 58903  97.4083  28.9525 0008925  68.9808 291.2393 15.41278726133832
LEMUR-2-JOHNNYTRUONG    
1 59146U 24043BA  26177.95920031  .00043312  00000+0  51174-3 0  9993
2 59146  97.5373 330.2724 0004838 147.1215 213.0344 15.61185783129561
LEMUR-2-TOMATOKECHUP    
1 60471U 24149D   26177.94366658  .00011191  00000+0  31913-3 0  9990
2 60471  97.3805 260.0157 0002269 157.0315 203.1031 15.36227311103661
LEMUR-2-STELLA          
1 60533U 24149BT  26177.94314751  .00011392  00000+0  66668-3 0  9994
2 60533  97.6742 260.4413 0001432  98.3665 261.7728 15.12006788101970
LEMUR-2-MARHISYAM       
1 60536U 24149BW  26177.79463563  .00010938  00000+0  65040-3 0  9994
2 60536  97.6882 260.7509 0003222 100.6886 259.4707 15.11438033101936
LEMUR-2-AHMED-ASRAR     
1 60576U 24149DN  26177.95175968  .00012248  00000+0  69846-3 0  9999
2 60576  97.7009 263.0396 0000920  19.0329 341.0935 15.12923643102040
LEMUR-2-LLOYD           
1 60577U 24149DP  26177.78790739  .00010812  00000+0  67955-3 0  9994
2 60577  97.6747 258.9223 0005031 116.5397 243.6347 15.09413280101845
LEMUR-2-SQUIRRELCOMM    
1 60578U 24149DQ  26177.94834547  .00006437  00000+0  43082-3 0  9992
2 60578  97.6719 258.8290 0005870  35.3800 324.7816 15.07259608101871
LEMUR-2-SIERRINI        
1 60579U 24149DR  26177.75391210  .00010962  00000+0  65698-3 0  9992
2 60579  97.6847 260.3886 0006489 137.6221 222.5511 15.11140065101905
LEMUR-2-WILSON          
1 62694U 25009CP  26177.93266036  .00002042  00000+0  19095-3 0  9995
2 62694  97.7026 256.2263 0003499  29.5193 330.6225 14.95204796 78812
LEMUR-2-STAR-FOX        
1 62696U 25009CR  26177.94878503  .00005813  00000+0  44078-3 0  9994
2 62696  97.6957 259.4875 0004381  91.9557 268.2170 15.02619329 79028
LEMUR-2-ARIANNA         
1 62699U 25009CU  26177.94723572  .00008172  00000+0  61764-3 0  9994
2 62699  97.6896 259.2525 0004717  96.3084 263.8678 15.02617014 79023
LEMUR-2-ALISIA          
1 62706U 25009DB  26177.72358556  .00008224  00000+0  61705-3 0  9998
2 62706  97.6939 259.8273 0002772 182.1025 178.0189 15.02894611101596
